# From MPC106342
C/1995 O1 (Hale-Bopp),e,89.0253,283.2846,130.7484,182.1555,0.0004009,0.99491114,0.0000,03/29.4878/1997,2000,g -2.0,4.0
# From NK 1615
P/1996 R2 (Lagerkvist),e,2.6009,40.0513,333.2845,3.773257,0.1344713,0.31351743,6.1255,03/29.0/2019,2000,g 11.5,4.0
# From MPC 30063
P/1997 B1 (Kobayashi),e,12.3457,328.9247,183.4165,8.554641,0.0393914,0.76025765,316.8413,03/29.0/2019,2000,g 15.0,2.0
# From MPC 75703
P/1998 VS24 (LINEAR),e,5.0226,159.0381,244.8646,4.533118,0.1021195,0.24158112,44.3580,03/29.0/2019,2000,g 13.0,2.0
# From NK 1780
P/1999 D1 (Hermann),e,21.3148,348.7806,174.1098,5.762082,0.0712582,0.71285512,163.3854,03/29.0/2019,2000,g 15.0,4.0
# From CCO 17
P/1999 R1 (SOHO),e,11.4499,351.7723,56.6799,2.509557,0.2479183,0.97981270,0.0000,08/31.4708/2019,2000,g 27.0,6.0
# From NK 731
P/1999 RO28 (LONEOS),e,7.5649,137.8849,231.2771,3.426235,0.1554098,0.67180141,346.1659,03/29.0/2019,2000,g 20.0,2.0
# From MPC 75704
P/1999 XN120 (Catalina),e,5.0297,285.2972,161.9902,4.179342,0.1153565,0.21095825,75.5422,03/29.0/2019,2000,g 13.5,2.0
# From NK 744
P/2000 R2 (LINEAR),e,11.6833,160.3109,176.4580,3.464430,0.1528468,0.53140728,347.7273,03/29.0/2019,2000,g 18.0,4.0
# From MPC 73461
P/2000 S4 (LINEAR-Spacewatch),e,28.3753,173.7971,173.0789,7.114296,0.0519405,0.68156056,350.5680,03/29.0/2019,2000,g 17.5,2.0
# From MPC 75704
P/2001 BB50 (LINEAR-NEAT),e,10.3551,351.2016,193.6591,5.738876,0.0716909,0.58663942,119.5749,03/29.0/2019,2000,g 13.0,4.0
# From MPC 43019
P/2001 H5 (NEAT),e,8.3735,328.6974,224.8459,6.097096,0.0654666,0.59959384,82.1327,03/29.0/2019,2000,g 12.0,4.0
# From MPC 75704
P/2001 Q6 (NEAT),e,56.8721,22.0413,43.0295,7.940950,0.0440449,0.82257815,280.7538,03/29.0/2019,2000,g 13.5,4.0
# From MPC 47727
P/2002 EJ57 (LINEAR),e,4.9765,330.4272,167.0553,6.462675,0.0599909,0.59341715,16.9987,03/29.0/2019,2000,g 12.5,4.0
# From MPC109588
P/2002 T5 (LINEAR),e,30.8567,123.0988,326.8840,6.993226,0.0532952,0.43720700,307.0441,03/29.0/2019,2000,g  8.0,4.0
# From MPC109588
P/2002 T6 (NEAT-LINEAR),e,10.8539,207.1858,219.0545,7.651894,0.0465640,0.55923866,269.3567,03/29.0/2019,2000,g 10.5,4.0
# From MPC 75007
C/2002 VQ94 (LINEAR),e,70.4633,34.9153,100.2148,189.2468,0.0003786,0.96390760,1.8191,03/29.0/2019,2000,g  9.5,2.0
# From MPC 50354
P/2003 F2 (NEAT),e,11.6049,359.0930,191.8051,6.487384,0.0596485,0.54217247,346.4064,03/29.0/2019,2000,g 16.5,2.0
# From MPEC 2019-E80
P/2003 L1 (Scotti),e,9.0207,226.0638,354.8096,6.717895,0.0566049,0.25308431,333.4688,03/29.0/2019,2000,g  9.5,4.0
# From MPC 50139
P/2003 QX29 (NEAT),e,11.3901,264.6085,37.1933,8.045419,0.0431898,0.47223873,259.7547,03/29.0/2019,2000,g  8.5,4.0
# From MPC 99268
P/2003 T12 (SOHO),e,11.0292,174.7621,219.6266,2.586478,0.2369414,0.77025829,264.1219,03/29.0/2019,2000,g 17.0,4.0
# From MPC 75705
P/2003 U3 (NEAT),e,7.0111,347.9836,356.8298,5.053962,0.0867473,0.50937319,141.0104,03/29.0/2019,2000,g 13.5,4.0
# From MPC 82312
P/2004 A1 (LONEOS),e,10.5543,124.8721,21.6781,7.942832,0.0440292,0.31034721,234.1782,03/29.0/2019,2000,g  6.5,4.0
# From MPC 54558
P/2004 DO29 (Spacewatch-LINEAR),e,14.5315,147.4297,40.7670,7.278614,0.0501916,0.44219649,264.9620,03/29.0/2019,2000,g 13.5,2.0
# From MPC 54823
P/2004 FY140 (LINEAR),e,2.1356,326.7763,242.4043,4.897263,0.0909440,0.16970048,121.9287,03/29.0/2019,2000,g 12.5,2.0
# From MPC 53304
P/2004 R3 (LINEAR-NEAT),e,12.7839,305.7167,40.5952,4.748018,0.0952655,0.26036935,271.8715,03/29.0/2019,2000,g 14.5,4.0
# From MPC 55521
P/2004 V3 (Siding Spring),e,50.3942,356.0985,322.2047,7.149360,0.0515589,0.44580707,272.3884,03/29.0/2019,2000,g 11.5,4.0
# From MPC 75705
P/2004 V5 (LINEAR-Hill),e,19.3525,47.7219,88.0103,7.965052,0.0438451,0.44429291,225.5527,03/29.0/2019,2000,g  8.0,4.0
# From MPC 75705
P/2004 WR9 (LINEAR),e,4.9302,24.8882,72.0262,6.145735,0.0646909,0.68272838,336.0860,03/29.0/2019,2000,g 14.5,4.0
# From MPC 54164
P/2005 E1 (Tubbiolo),e,4.2644,335.6193,194.2261,7.031793,0.0528573,0.37586943,273.0050,03/29.0/2019,2000,g 10.0,4.0
# From MPEC 2018-X49
P/2005 GF8 (LONEOS),e,1.1923,314.9061,285.3860,5.855641,0.0695572,0.51654654,347.1843,03/29.0/2019,2000,g 12.5,4.0
# From MPC 79019
P/2005 J1 (McNaught),e,31.7696,268.7958,338.9146,3.568465,0.1462116,0.57028817,24.4361,03/29.0/2019,2000,g 16.5,4.0
# From MPC 75705
P/2005 JD108 (Catalina-NEAT),e,3.2818,223.8095,89.9844,6.509681,0.0593423,0.37566968,300.0258,03/29.0/2019,2000,g 10.0,4.0
# From MPC 74246
P/2005 L1 (McNaught),e,7.7369,138.2392,149.5128,3.977894,0.1242294,0.20900118,242.1069,03/29.0/2019,2000,g  9.5,4.0
# From MPC 87062
C/2005 L3 (McNaught),e,139.5579,288.7732,47.2177,3857,0.0000041,0.99854359,0.0000,01/11.0366/2008,2000,g  4.0,4.0
# From MPC 75706
P/2005 S2 (Skiff),e,3.1354,161.1722,229.4567,8.019677,0.0433979,0.19576854,203.9784,03/29.0/2019,2000,g  7.5,4.0
# From MPC 75706
P/2005 SB216 (LONEOS),e,24.0550,1.3308,83.4829,7.120025,0.0518778,0.46261325,230.6212,03/29.0/2019,2000,g 12.0,2.0
# From MPC 55717
P/2005 T2 (Christensen),e,8.2938,260.1659,58.9458,3.847121,0.1306172,0.41715130,310.7982,03/29.0/2019,2000,g 14.5,4.0
# From MPC 73461
P/2005 T3 (Read),e,6.2354,27.8864,7.9103,7.561862,0.0473981,0.17248253,230.7650,03/29.0/2019,2000,g  9.0,4.0
# From MPC 73461
P/2005 T4 (SWAN),e,160.0960,25.4477,41.3560,9.357550,0.0344319,0.93064080,169.7260,03/29.0/2019,2000,g 15.0,4.0
# From MPC 75706
P/2005 T5 (Broughton),e,21.3365,57.0258,304.4725,7.294335,0.0500294,0.55085459,246.3074,03/29.0/2019,2000,g 11.0,4.0
# From MPC 56954
P/2005 W3 (Kowalski),e,16.4100,210.2157,200.3196,6.344001,0.0616821,0.54299300,304.0787,03/29.0/2019,2000,g 12.0,4.0
# From MPC 75706
P/2005 XA54 (LONEOS-Hill),e,17.1201,143.6967,15.1671,6.049048,0.0662481,0.71031246,315.4658,03/29.0/2019,2000,g 14.0,4.0
# From MPEC 2019-F27
P/2005 Y2 (McNaught),e,19.1096,94.5175,194.2928,6.343105,0.0616952,0.46722302,324.6243,03/29.0/2019,2000,g 12.0,4.0
# From MPC 75707
P/2006 F1 (Kowalski),e,21.2773,124.7409,186.2949,4.671997,0.0976001,0.12058712,36.8882,03/29.0/2019,2000,g  8.0,4.0
# From MPC 56954
P/2006 F4 (Spacewatch),e,12.3885,184.0319,31.1766,3.525657,0.1488826,0.33803790,341.1177,03/29.0/2019,2000,g 15.0,4.0
# From MPC 58118
P/2006 H1 (McNaught),e,12.8057,359.9607,309.2532,5.781222,0.0709046,0.58106527,342.0185,03/29.0/2019,2000,g 12.5,4.0
# From MPC 75707
P/2006 HR30 (Siding Spring),e,31.8531,309.8336,117.3813,7.810243,0.0451551,0.84151909,202.3492,03/29.0/2019,2000,g 11.0,4.0
# From MPC 73914
C/2006 K4 (NEAT),e,111.5328,116.7015,233.6904,1142,0.0000255,0.99719716,0.0000,11/25.2507/2007,2000,g  6.0,4.0
# From MPC 82313
C/2006 OF2 (Broughton),h,09/09.6400/2008,30.1669,318.6525,95.6724,1.001484,2.449559,2000,5.5,4.0
# From MPC112388
C/2006 Q1 (McNaught),e,59.1050,199.3979,344.5569,2833,0.0000065,0.99901809,0.0000,07/03.3041/2008,2000,g  5.0,4.0
# From MPC 73461
P/2006 R1 (Siding Spring),e,160.0700,218.8361,249.2802,5.635260,0.0736772,0.70481178,339.2327,03/29.0/2019,2000,g 16.0,4.0
# From MPC 69905
P/2006 S1 (Christensen),e,12.3256,207.9001,133.6095,3.544221,0.1477144,0.59961498,328.9130,03/29.0/2019,2000,g 17.5,4.0
# From MPC105235
C/2006 S3 (LONEOS),h,04/12.7271/2012,166.0231,38.3561,140.1767,1.000155,5.153995,2000,2.0,4.0
# From MPC 75707
P/2006 S4 (Christensen),e,39.5634,36.1112,305.2590,6.296205,0.0623858,0.50690958,296.1260,03/29.0/2019,2000,g 11.0,4.0
# From MPC 60465
C/2006 S5 (Hill),e,10.0972,281.5606,182.2345,96.11841,0.0010459,0.97235756,0.0000,12/02.4540/2007,2000,g  8.0,4.0
# From MPC 66204
C/2006 U6 (Spacewatch),e,84.8110,180.1427,276.7119,2041,0.0000107,0.99876550,0.0000,05/30.2941/2008,2000,g  8.0,4.0
# From MPC 62580
C/2006 V1 (Catalina),e,31.3322,335.4153,253.2064,160.1534,0.0004863,0.98341002,0.0000,11/28.3164/2007,2000,g  8.0,4.0
# From MPC105235
P/2006 W1 (Gibbs),e,18.5423,152.2975,232.2759,5.817156,0.0702487,0.70768032,333.8892,03/29.0/2019,2000,g 12.0,4.0
# From MPC 82313
C/2006 W3 (Christensen),e,127.0749,113.3421,133.1762,3242,0.0000053,0.99903939,0.0000,07/04.0123/2009,2000,g  5.0,4.0
# From MPC 75707
P/2007 A2 (Christensen),e,26.4928,300.9214,186.8707,6.315102,0.0621060,0.55755740,276.6649,03/29.0/2019,2000,g 13.5,4.0
# From MPC 59319
P/2007 B1 (Christensen),e,12.3779,77.6633,46.8399,5.812693,0.0703296,0.58075026,312.9622,03/29.0/2019,2000,g 13.5,4.0
# From MPC112388
C/2007 B2 (Skiff),e,27.5480,14.7242,206.2331,707.0794,0.0000524,0.99578767,0.0000,08/24.2548/2008,2000,g  6.0,4.0
# From MPC 75707
P/2007 C2 (Catalina),e,8.7154,275.8222,179.4942,7.013441,0.0530649,0.46593427,223.8734,03/29.0/2019,2000,g 10.0,4.0
# From MPC 84315
C/2007 D1 (LINEAR),e,41.4968,171.0582,340.2918,2160,0.0000098,0.99590795,0.0000,06/14.3315/2007,2000,g  3.5,4.0
# From MPC 66464
C/2007 G1 (LINEAR),e,88.6566,79.0311,223.8945,13354,0.0000006,0.99980199,0.0000,11/16.3322/2008,2000,g  5.5,4.0
# From MPC 82314
P/2007 K2 (Gibbs),e,7.6520,188.6502,347.5329,7.255503,0.0504316,0.68457021,217.1598,03/29.0/2019,2000,g 14.0,4.0
# From MPC 82314
C/2007 K3 (Siding Spring),e,16.4213,263.1790,23.3058,1896,0.0000119,0.99893277,0.0000,04/24.9495/2008,2000,g  9.5,4.0
# From MPC 87475
C/2007 M1 (McNaught),e,139.7652,326.8635,52.6924,1157,0.0000250,0.99352941,0.0000,08/05.4847/2008,2000,g  6.0,4.0
# From MPC112388
C/2007 M2 (Catalina),e,80.9588,357.2416,220.7511,1887,0.0000120,0.99812125,0.0000,12/11.6357/2008,2000,g  8.0,4.0
# From MPC 73461
C/2007 N3 (Lulin),e,178.3759,338.2597,136.7414,1897,0.0000119,0.99935222,0.0000,01/10.3042/2009,2000,g  6.5,4.0
# From MPC 60925
P/2007 Q2 (Gilmore),e,10.2057,172.2289,162.8508,5.642996,0.0735258,0.66998743,315.2027,03/29.0/2019,2000,g 16.0,4.0
# From MPC 78183
C/2007 Q3 (Siding Spring),h,10/06.1730/2009,65.5187,149.4491,2.2825,1.000550,2.271949,2000,4.5,4.0
# From MPC 75514
P/2007 R1 (Larson),e,7.7117,180.0677,174.9107,6.089196,0.0655940,0.28976676,284.9602,03/29.0/2019,2000,g  8.0,4.0
# From MPC 75708
P/2007 R2 (Gibbs),e,1.2199,11.6492,352.3275,3.571312,0.1460368,0.54354857,281.5818,03/29.0/2019,2000,g 17.0,4.0
# From MPC 75708
